41925,IRIDIUM 112,2017,100.4,860.0,+,86.4,Active,1,LEO,USA,USA,Commercial/Government,Communications,Falcon,1 41925U 17003J   24112.35395222  .00000607  00000+0  20956-3 0  9990,2 41925  86.3973  57.1174 0002396  90.9216 269.2254 14.34214769380496,14.34214769,0.0002396,LEO
41926,IRIDIUM 111,2017,100.4,860.0,+,86.4,Active,1,LEO,USA,USA,Commercial/Government,Communications,Falcon,1 41926U 17003K   24112.34126953  .00000867  00000+0  30254-3 0  9993,2 41926  86.3972  57.1759 0002459  84.3822 275.7654 14.34216096380474,14.34216096,0.0002459,LEO
42803,IRIDIUM 113,2017,100.4,860.0,+,86.39,Active,1,LEO,USA,USA,Commercial/Government,Communications,Falcon,1 42803U 17039A   24112.53054270  .00000245  00000+0  80525-4 0  9997,2 42803  86.3918 290.8827 0002334  91.7865 268.3598 14.34222670358433,14.3422267,0.0002334,LEO
42804,IRIDIUM 123,2017,100.4,860.0,+,86.4,Active,1,LEO,USA,USA,Commercial/Government,Communications,Falcon,1 42804U 17039B   24112.57201940  .00000387  00000+0  13126-3 0  9999,2 42804  86.3950 322.3830 0002328  86.8998 273.2464 14.34220623357207,14.34220623,0.0002328,LEO
42805,IRIDIUM 120,2017,100.4,860.0,+,86.39,Active,1,LEO,USA,USA,Commercial/Government,Communications,Falcon,1 42805U 17039C   24112.59397126  .00000080  00000+0  21669-4 0  9996,2 42805  86.3907 290.7403 0002160  85.8053 274.3389 14.34218594358437,14.34218594,0.000216,LEO
42806,IRIDIUM 115,2017,99.77,860.0,+,86.44,Active,1,LEO,USA,USA,Commercial/Government,Communications,Falcon,1 42806U 17039D   24112.56020807  .00000547  00000+0  15662-3 0  9996,2 42806  86.4446 290.7710 0002366  92.8726 267.2746 14.43281091360805,14.43281091,0.0002366,LEO
42807,IRIDIUM 118,2017,100.4,860.0,+,86.4,Active,1,LEO,USA,USA,Commercial/Government,Communications,Falcon,1 42807U 17039E   24112.60373378  .00000916  00000+0  32008-3 0  9999,2 42807  86.3950 322.3713 0002142  91.3048 268.8393 14.34220921357203,14.34220921,0.0002142,LEO
42808,IRIDIUM 117,2017,100.4,860.0,+,86.4,Active,1,LEO,USA,USA,Commercial/Government,Communications,Falcon,1 42808U 17039F   24112.55299130  .00000778  00000+0  27058-3 0  9992,2 42808  86.3950 322.3575 0002357  86.0465 274.1000 14.34221153357227,14.34221153,0.0002357,LEO
